COSMOS 2413 (712)       
1 28509U 04053B   15350.51009162  .00000087  00000-0  00000+0 0  9998
2 28509  63.1314 196.6391 0005562 159.5064 182.8785  2.13101748 85387
COSMOS 2419 (714)       
1 28915U 05050A   15349.96748155  .00000004  00000-0  00000+0 0  9995
2 28915  65.2420  84.3871 0014243 352.0988 292.4787  2.13113116 77626
COSMOS 2425 (716)       
1 29670U 06062A   15350.47190914 -.00000011  00000-0  10000-3 0  9994
2 29670  65.7102 323.3282 0022479 338.6971  35.6252  2.13105053 69841
COSMOS 2426 (717)       
1 29671U 06062B   15349.48530455 -.00000012  00000-0  10000-3 0  9993
2 29671  65.7277 323.4385 0016182 174.7853  24.8592  2.13103185 69821
COSMOS 2424 (715)       
1 29672U 06062C   15349.67444234 -.00000012  00000-0  10000-3 0  9994
2 29672  65.7124 323.3643 0015683 173.9921 347.6171  2.13102251 69823
COSMOS 2433 (720)       
1 32275U 07052A   15349.40309118  .00000006  00000-0  10000-3 0  9991
2 32275  65.2568  84.1734 0002726 231.6758 234.3961  2.13105047 63335
COSMOS 2432 (719)       
1 32276U 07052B   15349.43894895  .00000006  00000-0  10000-3 0  9996
2 32276  65.2689  84.2348 0010405 336.8091 111.0374  2.13104279 63338
COSMOS 2434 (721)       
1 32393U 07065A   15349.65449065 -.00000012  00000-0  00000+0 0  9992
2 32393  65.3302 322.7658 0001436 142.5339  49.9939  2.13102910 62049
COSMOS 2436 (723)       
1 32395U 07065C   15349.52174036 -.00000013  00000-0  10000-3 0  9999
2 32395  65.3433 322.8098 0017681 344.6917 197.9771  2.13102972 61978
COSMOS 2443 (725)       
1 33379U 08046B   15350.04449558  .00000003  00000-0  10000-3 0  9993
2 33379  65.1854  83.5863 0019281 183.9418 321.5632  2.13101549 56216
COSMOS 2456 (730)       
1 36111U 09070A   15350.34420120  .00000081  00000-0  00000+0 0  9996
2 36111  64.1860 202.3649 0003776 342.4714 187.8017  2.13103064 46724
COSMOS 2457 (733)       
1 36112U 09070B   15350.38636350  .00000081  00000-0  00000+0 0  9995
2 36112  64.1684 202.2950 0007165 149.1031 184.6515  2.13101732 46721
COSMOS 2458 (734)       
1 36113U 09070C   15349.39169672  .00000082  00000-0  10000-3 0  9999
2 36113  64.1738 202.3329 0002673  54.2065 283.6788  2.13101998 46709
COSMOS 2459 (731)       
1 36400U 10007A   15349.53185127  .00000005  00000-0  10000-3 0  9994
2 36400  65.1640  83.3431 0027032 353.5981  78.2667  2.13102370 45067
COSMOS 2461 (735)       
1 36401U 10007B   15350.41521701  .00000000  00000-0  10000-3 0  9991
2 36401  65.1575  83.2963 0006127  86.5026 213.6045  2.13102333 45074
COSMOS 2460 (732)       
1 36402U 10007C   15349.45619378  .00000005  00000-0  10000-3 0  9997
2 36402  65.1471  83.3081 0001456 165.4371 161.0895  2.13102036 45059
COSMOS 2466 (738)       
1 37137U 10041A   15350.03989005 -.00000013  00000-0  10000-3 0  9994
2 37137  64.9140 322.9491 0019241 160.8695 190.9545  2.13102440 41149
COSMOS 2465 (737)       
1 37138U 10041B   15350.10480983 -.00000013  00000-0  00000+0 0  9999
2 37138  64.9307 323.0163 0034122 172.7899  51.3310  2.13102865 41147
COSMOS 2464 (736)       
1 37139U 10041C   15349.41356887 -.00000014  00000-0  00000+0 0  9998
2 37139  64.9333 323.0321 0021523   6.5788 181.8208  2.13103005 41136
COSMOS 2471 (701K)      
1 37372U 11009A   15349.92629275  .00000003  00000-0  00000+0 0  9999
2 37372  65.1449  83.2420 0008278 227.6352 231.4944  2.13103010 37349
COSMOS 2474 (742)       
1 37829U 11055A   15350.50105258  .00000081  00000-0  00000+0 0  9999
2 37829  64.5104 202.6959 0006113 250.8768 261.9529  2.13101996 32721
COSMOS 2476 (744)       
1 37867U 11064A   15349.40141922  .00000081  00000-0  00000+0 0  9996
2 37867  64.4905 202.8190 0014859 246.7540 188.2230  2.13102091 32051
COSMOS 2477 (745)       
1 37868U 11064B   15349.53128855  .00000081  00000-0  00000+0 0  9991
2 37868  64.4991 202.8531 0012924 248.1134 105.9125  2.13102012 32009
COSMOS 2475 (743)       
1 37869U 11064C   15350.31580277  .00000081  00000-0  00000+0 0  9990
2 37869  64.5064 202.8126 0018680 278.8063 273.1087  2.13102292 32036
COSMOS 2478 (746)       
1 37938U 11071A   15350.14991419  .00000002  00000-0  00000+0 0  9993
2 37938  65.1719  83.4499 0014178 237.7563 155.3513  2.13088576 31649
COSMOS 2485 (747)       
1 39155U 13019A   15349.66773715  .00000081  00000-0  00000+0 0  9999
2 39155  64.6596 202.7199 0015159 240.4770  84.0142  2.13102173 20524
COSMOS 2492 (754)       
1 39620U 14012A   15349.31936014  .00000008  00000-0  86562+1 0  9992
2 39620  65.0358  83.3266 0014087 332.1079 117.7283  2.13103670 13479
COSMOS 2500 (755)       
1 40001U 14032A   15349.42096390  .00000005  00000-0  00000+0 0  9994
2 40001  64.9763  83.3618 0007287 198.3387 193.5233  2.13102997 11691
COSMOS 2501 (702K)      
1 40315U 14075A   15349.44580321 -.00000015  00000-0  00000+0 0  9995
2 40315  64.7014 324.5454 0018901 240.1693 332.9535  2.13101667  8092
